[{"OBJECT_ID":"2011-049B","OBJECT_NAME":"ARABSAT 5C","NORAD_CAT_ID":"37810","OBJECT_TYPE":"PAYLOAD","PERIOD":"1436.079","INCLINATION":"0.0642","APOGEE":"35800.114","PERIGEE":"35772.379","ECCENTRICITY":"0.0003289","MEAN_MOTION":"1.00273033","TLE_LINE1":"1 37810U 11049B   16239.07369164  .00000095  00000-0  00000+0 0  9994","TLE_LINE2":"2 37810   0.0642   9.9373 0003289 146.6946 224.6340  1.00273033 17998","LAUNCH_DATE":"2011-09-21","LAUNCH_SITE":"FRENCH GUIANA","OWNER":"ARAB SATELLITE COMMUNICATIONS ORGANIZATION","ORBIT_TYPE":"Geosynchronous","OPERATIONAL_STATUS":"Operational","satInfo":{"lng":37.55830110782088,"lat":0.27779651097441677,"elevation":-8.30464799552188,"azimuth":277.4416988921791,"range":42599.69984466463,"height":35775.360557850596,"velocity":3.074798445659206},"x":183,"y":-233,"dx":2.437495692868504,"dy":-1.8742999302875083},{"OBJECT_ID":"2011-051A","OBJECT_NAME":"EUTE 7 WEST A (AB 7)","NORAD_CAT_ID":"37816","OBJECT_TYPE":"PAYLOAD","PERIOD":"1436.092","INCLINATION":"0.0803","APOGEE":"35801.106","PERIGEE":"35771.920","ECCENTRICITY":"0.0003461","MEAN_MOTION":"1.00272083","TLE_LINE1":"1 37816U 11051A   16238.09320598 -.00000086  00000-0  00000+0 0  9993","TLE_LINE2":"2 37816   0.0803  48.5749 0003461 126.7068 184.7166  1.00272083 18048","LAUNCH_DATE":"2011-09-24","LAUNCH_SITE":"SEA LAUNCH","OWNER":"EUROPEAN TELECOMMUNICATIONS SATELLITE ORGANIZATION (EUTELSAT)","ORBIT_TYPE":"Geosynchronous","OPERATIONAL_STATUS":"Operational","satInfo":{"lng":69.83562124354364,"lat":1.3182303738752061,"elevation":-7.276067129357513,"azimuth":245.1643787564564,"range":42535.815419027815,"height":35826.31439959922,"velocity":3.073023167130169},"x":282,"y":-101,"dx":1.059316147596366,"dy":-2.8846699438861854},{"OBJECT_ID":"2011-051B","OBJECT_NAME":"BLOCK DM-SL R/B","NORAD_CAT_ID":"37817","OBJECT_TYPE":"ROCKET BODY","PERIOD":"653.525","INCLINATION":"0.7721","APOGEE":"35566.498","PERIGEE":"1569.359","ECCENTRICITY":"0.6814129","MEAN_MOTION":"2.20343236","TLE_LINE1":"1 37817U 11051B   16238.96646324 -.00000245  00000-0  00000+0 0  9995","TLE_LINE2":"2 37817   0.7721  12.4848 6814129 129.5804 303.9531  2.20343236 39597","LAUNCH_DATE":"2011-09-24","LAUNCH_SITE":"SEA LAUNCH","OWNER":"SEA LAUNCH DEMO","ORBIT_TYPE":"Highly Elliptical Orbit","OPERATIONAL_STATUS":"N/A, derelict rocket body","satInfo":{"lng":-43.550519824393994,"lat":-0.4212326215783558,"elevation":-11.006337261894668,"azimuth":358.550519824394,"range":34604.14636158296,"height":27590.420061502668,"velocity":2.7368584462373047},"x":-159,"y":-164,"dx":1.98358507202889,"dy":1.8856787681799403},{"OBJECT_ID":"2011-054A","OBJECT_NAME":"QUETZSAT 1","NORAD_CAT_ID":"37826","OBJECT_TYPE":"PAYLOAD","PERIOD":"1436.053","INCLINATION":"0.0628","APOGEE":"35796.240","PERIGEE":"35775.267","ECCENTRICITY":"0.0002487","MEAN_MOTION":"1.00274792","TLE_LINE1":"1 37826U 11054A   16239.27414123 -.00000270  00000-0  00000+0 0  9991","TLE_LINE2":"2 37826   0.0628 291.1711 0002487 227.1172 198.3392  1.00274792 18184","LAUNCH_DATE":"2011-09-29","LAUNCH_SITE":"TYURATAM MISSILE AND SPACE COMPLEX","OWNER":"MEXICO","ORBIT_TYPE":"Geosynchronous","OPERATIONAL_STATUS":"Operational","satInfo":{"lng":-92.98849807439687,"lat":0.13811721703808458,"elevation":-8.436174585478161,"azimuth":47.988498074396844,"range":42639.58084542075,"height":35800.201911913675,"velocity":3.0741452143092434},"x":-300,"y":15,"dx":-0.16027204812310322,"dy":3.0699644410401317},{"OBJECT_ID":"2011-056A","OBJECT_NAME":"INTELSAT 18","NORAD_CAT_ID":"37834","OBJECT_TYPE":"PAYLOAD","PERIOD":"1436.119","INCLINATION":"0.0196","APOGEE":"35794.352","PERIGEE":"35779.729","ECCENTRICITY":"0.0001734","MEAN_MOTION":"1.00270201","TLE_LINE1":"1 37834U 11056A   16239.54617060  .00000023  00000-0  00000+0 0  9992","TLE_LINE2":"2 37834   0.0196 128.4242 0001734  40.8872 182.5128  1.00270201 17930","LAUNCH_DATE":"2011-10-05","LAUNCH_SITE":"TYURATAM MISSILE AND SPACE COMPLEX","OWNER":"INTERNATIONAL TELECOMMUNICATIONS SATELLITE ORGANIZATION (INTELSAT)","ORBIT_TYPE":"Geosynchronous","OPERATIONAL_STATUS":"Operational","satInfo":{"lng":22.18066106630826,"lat":-1.8873428330331439,"elevation":-10.415588340229077,"azimuth":292.81933893369177,"range":42834.78509895122,"height":35773.673803662794,"velocity":3.074916877358687},"x":113,"y":-272,"dx":2.847367075204094,"dy":-1.1608680121826866},{"OBJECT_ID":"2011-057A","OBJECT_NAME":"EUTE 16A (EUTE W3C)","NORAD_CAT_ID":"37836","OBJECT_TYPE":"PAYLOAD","PERIOD":"1436.084","INCLINATION":"0.0657","APOGEE":"35803.559","PERIGEE":"35769.153","ECCENTRICITY":"0.000408","MEAN_MOTION":"1.00272643","TLE_LINE1":"1 37836U 11057A   16239.10396720  .00000076  00000-0  00000+0 0  9992","TLE_LINE2":"2 37836   0.0657 359.5914 0004080 157.0625 231.5346  1.00272643 17873","LAUNCH_DATE":"2011-10-07","LAUNCH_SITE":"Xichang Space Center, China","OWNER":"EUROPEAN TELECOMMUNICATIONS SATELLITE ORGANIZATION (EUTELSAT)","ORBIT_TYPE":"Geosynchronous","OPERATIONAL_STATUS":"Operational","satInfo":{"lng":22.75143042245964,"lat":0.0632104967653123,"elevation":-8.511750160853305,"azimuth":292.24856957754037,"range":42636.003335258756,"height":35788.27898864677,"velocity":3.074143764429765},"x":116,"y":-271,"dx":2.8349486865177673,"dy":-1.1888758678657727},{"OBJECT_ID":"2011-059A","OBJECT_NAME":"VIASAT 1","NORAD_CAT_ID":"37843","OBJECT_TYPE":"PAYLOAD","PERIOD":"1436.118","INCLINATION":"0.0281","APOGEE":"35799.777","PERIGEE":"35774.250","ECCENTRICITY":"0.0003027","MEAN_MOTION":"1.00270298","TLE_LINE1":"1 37843U 11059A   16238.68380462 -.00000245  00000-0  10000-3 0  9994","TLE_LINE2":"2 37843   0.0281  94.0152 0003027  51.9861 319.5247  1.00270298 18347","LAUNCH_DATE":"2011-10-19","LAUNCH_SITE":"TYURATAM MISSILE AND SPACE COMPLEX","OWNER":"UNITED STATES OF AMERICA","ORBIT_TYPE":"Geosynchronous","OPERATIONAL_STATUS":"Operational","satInfo":{"lng":-106.33813007388113,"lat":-0.3119315812554686,"elevation":-8.879230385074335,"azimuth":61.33813007388112,"range":42671.365290366484,"height":35782.47383901592,"velocity":3.0747809163887743},"x":-288,"y":82,"dx":-0.8649524530432273,"dy":2.950616026826109},{"OBJECT_ID":"2011-069A","OBJECT_NAME":"ASIASAT 7","NORAD_CAT_ID":"37933","OBJECT_TYPE":"PAYLOAD","PERIOD":"1436.101","INCLINATION":"0.0152","APOGEE":"35790.360","PERIGEE":"35782.998","ECCENTRICITY":"8.73e-05","MEAN_MOTION":"1.00271491","TLE_LINE1":"1 37933U 11069A   16238.89641199 -.00000362 +00000-0 +00000-0 0  9991","TLE_LINE2":"2 37933 000.0152 177.1136 0000873 312.4951 273.1772 01.00271491008938","LAUNCH_DATE":"2011-11-25","LAUNCH_SITE":"TYURATAM MISSILE AND SPACE COMPLEX","OWNER":"ASIASAT CORP","ORBIT_TYPE":"Geosynchronous","OPERATIONAL_STATUS":"Operational","satInfo":{"lng":48.70104333316457,"lat":-0.264812920445834,"elevation":-8.830671365380335,"azimuth":266.2989566668354,"range":42678.899369527055,"height":35795.311368322444,"velocity":3.0743803483354086},"x":225,"y":-194,"dx":2.0290540993162076,"dy":-2.3097086370966884},{"OBJECT_ID":"2011-074A","OBJECT_NAME":"AMOS 5","NORAD_CAT_ID":"37950","OBJECT_TYPE":"PAYLOAD","PERIOD":"1434.548","INCLINATION":"0.5664","APOGEE":"35766.807","PERIGEE":"35745.773","ECCENTRICITY":"0.0002496","MEAN_MOTION":"1.0037999","TLE_LINE1":"1 37950U 11074A   16239.11472117 -.00000148  00000-0  00000+0 0  9995","TLE_LINE2":"2 37950   0.5664  91.2664 0002496  52.0137 308.6800  1.00379990 17353","LAUNCH_DATE":"2011-12-11","LAUNCH_SITE":"TYURATAM MISSILE AND SPACE COMPLEX","OWNER":"ISRAEL","ORBIT_TYPE":"Geosynchronous","OPERATIONAL_STATUS":"Nonoperational","satInfo":{"lng":113.45300358009695,"lat":2.2235754459829296,"elevation":-6.401458259233549,"azimuth":201.54699641990305,"range":42369.16610885942,"height":35758.556105309515,"velocity":3.0760179845619113},"x":275,"y":116,"dx":-1.2242450790961212,"dy":-2.8218984084579044},{"OBJECT_ID":"2011-074B","OBJECT_NAME":"LUCH 5A","NORAD_CAT_ID":"37951","OBJECT_TYPE":"PAYLOAD","PERIOD":"1436.059","INCLINATION":"1.6648","APOGEE":"35799.747","PERIGEE":"35771.986","ECCENTRICITY":"0.0003292","MEAN_MOTION":"1.00274389","TLE_LINE1":"1 37951U 11074B   16239.51323774 -.00000074  00000-0  00000+0 0  9992","TLE_LINE2":"2 37951   1.6648 208.2416 0003292 298.9651 179.7973  1.00274389 17275","LAUNCH_DATE":"2011-12-11","LAUNCH_SITE":"TYURATAM MISSILE AND SPACE COMPLEX","OWNER":"COMMONWEALTH OF INDEPENDENT STATES","ORBIT_TYPE":"Geosynchronous","OPERATIONAL_STATUS":"Operational","satInfo":{"lng":83.48102554079891,"lat":-0.6974783684701722,"elevation":-9.262506391475217,"azimuth":231.51897445920108,"range":42678.13504420394,"height":35746.646804330085,"velocity":3.076294347808101},"x":298,"y":-34,"dx":0.3492586052894428,"dy":-3.056403988511228},{"OBJECT_ID":"2011-077A","OBJECT_NAME":"NIGCOMSAT 1R","NORAD_CAT_ID":"38014","OBJECT_TYPE":"PAYLOAD","PERIOD":"1436.090","INCLINATION":"0.0191","APOGEE":"35801.118","PERIGEE":"35771.839","ECCENTRICITY":"0.0003472","MEAN_MOTION":"1.00272205","TLE_LINE1":"1 38014U 11077A   16238.78936252 +.00000117 +00000-0 +00000-0 0  9993","TLE_LINE2":"2 38014 000.0191 277.6749 0003472 344.4632 038.9808 01.00272205017028","LAUNCH_DATE":"2011-12-19","LAUNCH_SITE":"Xichang Space Center, China","OWNER":"NIGERIA","ORBIT_TYPE":"Geosynchronous","OPERATIONAL_STATUS":"Operational","satInfo":{"lng":100.09418289035133,"lat":-1.1638454833210736,"elevation":-9.708568123083518,"azimuth":214.90581710964867,"range":42770.80384587981,"height":35788.804851000794,"velocity":3.0740829818298248},"x":295,"y":51,"dx":-0.5387845974849536,"dy":-3.026499188284828}]